CCSDS_OMM_VERS = 2.0
CREATION_DATE  = 
ORIGINATOR     = 

OBJECT_NAME    = CZ-2C R/B
OBJECT_ID      = 2022-132E
CENTER_NAME    = EARTH
REF_FRAME      = TEME
TIME_SYSTEM    = UTC
MEAN_ELEMENT_THEORY = SGP/SGP4

EPOCH          = 2025-12-10T17:45:38.203200
MEAN_MOTION    = 15.54610433
ECCENTRICITY   = .0023344
INCLINATION    = 97.2950
RA_OF_ASC_NODE = 340.9003
ARG_OF_PERICENTER = 63.7311
MEAN_ANOMALY   = 296.6338

EPHEMERIS_TYPE = 0
CLASSIFICATION_TYPE = U
NORAD_CAT_ID   = 54039
ELEMENT_SET_NO = 999
REV_AT_EPOCH   = 17652
BSTAR          = .6989E-3
MEAN_MOTION_DOT = .46843E-3
MEAN_MOTION_DDOT = 0

CCSDS_OMM_VERS = 2.0
CREATION_DATE  = 
ORIGINATOR     = 

OBJECT_NAME    = GSLV R/B
OBJECT_ID      = 2022-138AN
CENTER_NAME    = EARTH
REF_FRAME      = TEME
TIME_SYSTEM    = UTC
MEAN_ELEMENT_THEORY = SGP/SGP4

EPOCH          = 2025-12-10T07:32:22.853760
MEAN_MOTION    = 14.96109755
ECCENTRICITY   = .00239963
INCLINATION    = 87.3825
RA_OF_ASC_NODE = 196.2865
ARG_OF_PERICENTER = 113.4541
MEAN_ANOMALY   = 246.9217

EPHEMERIS_TYPE = 0
CLASSIFICATION_TYPE = U
NORAD_CAT_ID   = 54149
ELEMENT_SET_NO = 999
REV_AT_EPOCH   = 17056
BSTAR          = .31290522E-3
MEAN_MOTION_DOT = .3566E-4
MEAN_MOTION_DDOT = 0

CCSDS_OMM_VERS = 2.0
CREATION_DATE  = 
ORIGINATOR     = 

OBJECT_NAME    = XRISM
OBJECT_ID      = 2023-137A
CENTER_NAME    = EARTH
REF_FRAME      = TEME
TIME_SYSTEM    = UTC
MEAN_ELEMENT_THEORY = SGP/SGP4

EPOCH          = 2025-12-10T17:15:55.524096
MEAN_MOTION    = 15.10310560
ECCENTRICITY   = .0007655
INCLINATION    = 31.0008
RA_OF_ASC_NODE = 138.5878
ARG_OF_PERICENTER = 225.1336
MEAN_ANOMALY   = 134.8681

EPHEMERIS_TYPE = 0
CLASSIFICATION_TYPE = U
NORAD_CAT_ID   = 57800
ELEMENT_SET_NO = 999
REV_AT_EPOCH   = 12432
BSTAR          = .53282E-3
MEAN_MOTION_DOT = .9052E-4
MEAN_MOTION_DDOT = 0

CCSDS_OMM_VERS = 2.0
CREATION_DATE  = 
ORIGINATOR     = 

OBJECT_NAME    = ACS3
OBJECT_ID      = 2024-077B
CENTER_NAME    = EARTH
REF_FRAME      = TEME
TIME_SYSTEM    = UTC
MEAN_ELEMENT_THEORY = SGP/SGP4

EPOCH          = 2025-12-10T14:05:47.870304
MEAN_MOTION    = 13.85335572
ECCENTRICITY   = .0077791
INCLINATION    = 97.2698
RA_OF_ASC_NODE = 300.6738
ARG_OF_PERICENTER = 343.3516
MEAN_ANOMALY   = 16.5093

EPHEMERIS_TYPE = 0
CLASSIFICATION_TYPE = U
NORAD_CAT_ID   = 59588
ELEMENT_SET_NO = 999
REV_AT_EPOCH   = 8184
BSTAR          = .43229E-1
MEAN_MOTION_DOT = .50623E-3
MEAN_MOTION_DDOT = 0

CCSDS_OMM_VERS = 2.0
CREATION_DATE  = 
ORIGINATOR     = 

OBJECT_NAME    = SZ-21 MODULE
OBJECT_ID      = 2025-246C
CENTER_NAME    = EARTH
REF_FRAME      = TEME
TIME_SYSTEM    = UTC
MEAN_ELEMENT_THEORY = SGP/SGP4

EPOCH          = 2025-12-10T11:51:01.003968
MEAN_MOTION    = 15.62311534
ECCENTRICITY   = .00062785
INCLINATION    = 41.4772
RA_OF_ASC_NODE = 29.7454
ARG_OF_PERICENTER = 248.1298
MEAN_ANOMALY   = 111.8874

EPHEMERIS_TYPE = 0
CLASSIFICATION_TYPE = U
NORAD_CAT_ID   = 66515
ELEMENT_SET_NO = 999
REV_AT_EPOCH   = 409
BSTAR          = .39110764E-3
MEAN_MOTION_DOT = .35412E-3
MEAN_MOTION_DDOT = 0

